{"type": "FeatureCollection", "features": [ {"type": "Feature", "properties": {"norad_id": 35773, "name": "COSMOS 2251 DEB", "group": "cosmos-2251-debris", "lat": -71.43717971683353, "lon": -90.39865657393938, "alt_km": 721.8627659733502, "timestamp": "2025-12-19T06:59:44.303351+00:00", "meta": {"OBJECT_NAME": "COSMOS 2251 DEB", "OBJECT_ID": "1993-036ART", "EPOCH": "2025-12-18T08:22:33.568032", "MEAN_MOTION": 14.62099226, "ECCENTRICITY": 0.00453246, "INCLINATION": 74.0074, "RA_OF_ASC_NODE": 330.0608, "ARG_OF_PERICENTER": 128.4715, "MEAN_ANOMALY": 232.0532, "EPHEMERIS_TYPE": 0, "CLASSIFICATION_TYPE": "U", "NORAD_CAT_ID": 35773, "ELEMENT_SET_NO": 999, "REV_AT_EPOCH": 86921, "BSTAR": 0.00045597488, "MEAN_MOTION_DOT": 2.295e-05, "MEAN_MOTION_DDOT": 0}, "tle": {"line1": "1 35773U 93036ART 25352.34899963  .00002295  00000+0  45597-3 0  9994", "line2": "2 35773  74.0074 330.0608 0045324 128.4715 232.0532 14.62099226869219"}}, "geometry": {"type": "Point", "coordinates": [-90.39865657393938, -71.43717971683353]}}, {"type": "Feature", "properties": {"norad_id": 35777, "name": "COSMOS 2251 DEB", "group": "cosmos-2251-debris", "lat": 63.672083306938696, "lon": 96.21406163834087, "alt_km": 1113.1027622005022, "timestamp": "2025-12-19T06:59:44.303361+00:00", "meta": {"OBJECT_NAME": "COSMOS 2251 DEB", "OBJECT_ID": "1993-036ARX", "EPOCH": "2025-12-18T07:54:51.389280", "MEAN_MOTION": 13.41305779, "ECCENTRICITY": 0.04520138, "INCLINATION": 73.7704, "RA_OF_ASC_NODE": 313.8075, "ARG_OF_PERICENTER": 207.8246, "MEAN_ANOMALY": 306.1255, "EPHEMERIS_TYPE": 0, "CLASSIFICATION_TYPE": "U", "NORAD_CAT_ID": 35777, "ELEMENT_SET_NO": 999, "REV_AT_EPOCH": 79759, "BSTAR": 0.00020170503, "MEAN_MOTION_DOT": 1.82e-06, "MEAN_MOTION_DDOT": 0}, "tle": {"line1": "1 35777U 93036ARX 25352.32976145  .00000182  00000+0  20171-3 0  9998", "line2": "2 35777  73.7704 313.8075 0452013 207.8246 306.1255 13.41305779797599"}}, "geometry": {"type": "Point", "coordinates": [96.21406163834087, 63.672083306938696]}}, {"type": "Feature", "properties": {"norad_id": 35784, "name": "COSMOS 2251 DEB", "group": "cosmos-2251-debris", "lat": 10.979125872585941, "lon": 80.59011362882133, "alt_km": 755.0022746411842, "timestamp": "2025-12-19T06:59:44.303372+00:00", "meta": {"OBJECT_NAME": "COSMOS 2251 DEB", "OBJECT_ID": "1993-036ASE", "EPOCH": "2025-12-17T23:28:57.859680", "MEAN_MOTION": 14.50055355, "ECCENTRICITY": 0.00415956, "INCLINATION": 74.0403, "RA_OF_ASC_NODE": 79.8718, "ARG_OF_PERICENTER": 209.9484, "MEAN_ANOMALY": 149.9297, "EPHEMERIS_TYPE": 0, "CLASSIFICATION_TYPE": "U", "NORAD_CAT_ID": 35784, "ELEMENT_SET_NO": 999, "REV_AT_EPOCH": 65782, "BSTAR": 0.00024795111, "MEAN_MOTION_DOT": 9.44e-06, "MEAN_MOTION_DDOT": 0}, "tle": {"line1": "1 35784U 93036ASE 25351.97844745  .00000944  00000+0  24795-3 0  9998", "line2": "2 35784  74.0403  79.8718 0041595 209.9484 149.9297 14.50055355657829"}}, "geometry": {"type": "Point", "coordinates": [80.59011362882133, 10.979125872585941]}}, {"type": "Feature", "properties": {"norad_id": 35786, "name": "COSMOS 2251 DEB", "group": "cosmos-2251-debris", "lat": -45.56810318462039, "lon": 14.124298600614898, "alt_km": 700.438483531203, "timestamp": "2025-12-19T06:59:44.303384+00:00", "meta": {"OBJECT_NAME": "COSMOS 2251 DEB", "OBJECT_ID": "1993-036ASG", "EPOCH": "2025-12-17T11:00:13.182624", "MEAN_MOTION": 14.66275248, "ECCENTRICITY": 0.00336818, "INCLINATION": 74.0147, "RA_OF_ASC_NODE": 34.662, "ARG_OF_PERICENTER": 163.3391, "MEAN_ANOMALY": 196.8894, "EPHEMERIS_TYPE": 0, "CLASSIFICATION_TYPE": "U", "NORAD_CAT_ID": 35786, "ELEMENT_SET_NO": 999, "REV_AT_EPOCH": 73477, "BSTAR": 0.00069598569, "MEAN_MOTION_DOT": 3.84e-05, "MEAN_MOTION_DDOT": 0}, "tle": {"line1": "1 35786U 93036ASG 25351.45848591  .00003840  00000+0  69599-3 0  9995", "line2": "2 35786  74.0147  34.6620 0033681 163.3391 196.8894 14.66275248734770"}}, "geometry": {"type": "Point", "coordinates": [14.124298600614898, -45.56810318462039]}}, {"type": "Feature", "properties": {"norad_id": 35789, "name": "COSMOS 2251 DEB", "group": "cosmos-2251-debris", "lat": 10.922016790823863, "lon": -84.48924295713888, "alt_km": 738.8712822312737, "timestamp": "2025-12-19T06:59:44.303394+00:00", "meta": {"OBJECT_NAME": "COSMOS 2251 DEB", "OBJECT_ID": "1993-036ASK", "EPOCH": "2025-12-17T01:26:23.250912", "MEAN_MOTION": 14.35989528, "ECCENTRICITY": 0.00475408, "INCLINATION": 74.0381, "RA_OF_ASC_NODE": 276.4392, "ARG_OF_PERICENTER": 14.7858, "MEAN_ANOMALY": 345.4672, "EPHEMERIS_TYPE": 0, "CLASSIFICATION_TYPE": "U", "NORAD_CAT_ID": 35789, "ELEMENT_SET_NO": 999, "REV_AT_EPOCH": 61289, "BSTAR": 0.00011853028, "MEAN_MOTION_DOT": 3.23e-06, "MEAN_MOTION_DDOT": 0}, "tle": {"line1": "1 35789U 93036ASK 25351.05999133  .00000323  00000+0  11853-3 0  9996", "line2": "2 35789  74.0381 276.4392 0047540  14.7858 345.4672 14.35989528612894"}}, "geometry": {"type": "Point", "coordinates": [-84.48924295713888, 10.922016790823863]}}, {"type": "Feature", "properties": {"norad_id": 35793, "name": "COSMOS 2251 DEB", "group": "cosmos-2251-debris", "lat": -7.782862059407616, "lon": 45.068215613722636, "alt_km": 637.0803557577983, "timestamp": "2025-12-19T06:59:44.303404+00:00", "meta": {"OBJECT_NAME": "COSMOS 2251 DEB", "OBJECT_ID": "1993-036ASP", "EPOCH": "2025-12-16T22:59:16.262304", "MEAN_MOTION": 14.7878305, "ECCENTRICITY": 0.00021826, "INCLINATION": 74.0414, "RA_OF_ASC_NODE": 51.8941, "ARG_OF_PERICENTER": 103.608, "MEAN_ANOMALY": 69.9436, "EPHEMERIS_TYPE": 0, "CLASSIFICATION_TYPE": "U", "NORAD_CAT_ID": 35793, "ELEMENT_SET_NO": 999, "REV_AT_EPOCH": 65859, "BSTAR": 0.0012867323, "MEAN_MOTION_DOT": 9.439e-05, "MEAN_MOTION_DDOT": 0}, "tle": {"line1": "1 35793U 93036ASP 25350.95782711  .00009439  00000+0  12867-2 0  9993", "line2": "2 35793  74.0414  51.8941 0002182 103.6080  69.9436 14.78783050658591"}}, "geometry": {"type": "Point", "coordinates": [45.068215613722636, -7.782862059407616]}}, {"type": "Feature", "properties": {"norad_id": 35824, "name": "COSMOS 2251 DEB", "group": "cosmos-2251-debris", "lat": 38.9976828980804, "lon": 51.10257024064093, "alt_km": 899.4291081608008, "timestamp": "2025-12-19T06:59:44.303414+00:00", "meta": {"OBJECT_NAME": "COSMOS 2251 DEB", "OBJECT_ID": "1993-036ASW", "EPOCH": "2025-12-17T20:12:45.612576", "MEAN_MOTION": 13.88437103, "ECCENTRICITY": 0.02481819, "INCLINATION": 73.8461, "RA_OF_ASC_NODE": 40.0198, "ARG_OF_PERICENTER": 125.2294, "MEAN_ANOMALY": 237.234, "EPHEMERIS_TYPE": 0, "CLASSIFICATION_TYPE": "U", "NORAD_CAT_ID": 35824, "ELEMENT_SET_NO": 999, "REV_AT_EPOCH": 84298, "BSTAR": 0.00079958432, "MEAN_MOTION_DOT": 1.204e-05, "MEAN_MOTION_DDOT": 0}, "tle": {"line1": "1 35824U 93036ASW 25351.84219459  .00001204  00000+0  79958-3 0  9998", "line2": "2 35824  73.8461  40.0198 0248181 125.2294 237.2340 13.88437103842984"}}, "geometry": {"type": "Point", "coordinates": [51.10257024064093, 38.9976828980804]}}, {"type": "Feature", "properties": {"norad_id": 35825, "name": "COSMOS 2251 DEB", "group": "cosmos-2251-debris", "lat": 8.894596486500662, "lon": 134.42695045888698, "alt_km": 1202.0855776740718, "timestamp": "2025-12-19T06:59:44.303436+00:00", "meta": {"OBJECT_NAME": "COSMOS 2251 DEB", "OBJECT_ID": "1993-036ASX", "EPOCH": "2025-12-14T02:36:29.406816", "MEAN_MOTION": 13.70963524, "ECCENTRICITY": 0.03526119, "INCLINATION": 74.113, "RA_OF_ASC_NODE": 140.3902, "ARG_OF_PERICENTER": 235.9093, "MEAN_ANOMALY": 120.8102, "EPHEMERIS_TYPE": 0, "CLASSIFICATION_TYPE": "U", "NORAD_CAT_ID": 35825, "ELEMENT_SET_NO": 999, "REV_AT_EPOCH": 82527, "BSTAR": 0.0023333684, "MEAN_MOTION_DOT": 3.214e-05, "MEAN_MOTION_DDOT": 0}, "tle": {"line1": "1 35825U 93036ASX 25348.10867369  .00003214  00000+0  23334-2 0  9992", "line2": "2 35825  74.1130 140.3902 0352611 235.9093 120.8102 13.70963524825277"}}, "geometry": {"type": "Point", "coordinates": [134.42695045888698, 8.894596486500662]}}, {"type": "Feature", "properties": {"norad_id": 35829, "name": "COSMOS 2251 DEB", "group": "cosmos-2251-debris", "lat": -32.92422184088925, "lon": -83.34143386126489, "alt_km": 645.2292708118684, "timestamp": "2025-12-19T06:59:44.303446+00:00", "meta": {"OBJECT_NAME": "COSMOS 2251 DEB", "OBJECT_ID": "1993-036ATB", "EPOCH": "2025-12-17T00:21:46.598688", "MEAN_MOTION": 14.76400839, "ECCENTRICITY": 0.0005573, "INCLINATION": 74.0249, "RA_OF_ASC_NODE": 90.4281, "ARG_OF_PERICENTER": 146.0686, "MEAN_ANOMALY": 214.0846, "EPHEMERIS_TYPE": 0, "CLASSIFICATION_TYPE": "U", "NORAD_CAT_ID": 35829, "ELEMENT_SET_NO": 999, "REV_AT_EPOCH": 87838, "BSTAR": 0.001494418, "MEAN_MOTION_DOT": 0.00010373, "MEAN_MOTION_DDOT": 0}, "tle": {"line1": "1 35829U 93036ATB 25351.01512267  .00010373  00000+0  14944-2 0  9995", "line2": "2 35829  74.0249  90.4281 0005573 146.0686 214.0846 14.76400839878381"}}, "geometry": {"type": "Point", "coordinates": [-83.34143386126489, -32.92422184088925]}}, {"type": "Feature", "properties": {"norad_id": 35830, "name": "COSMOS 2251 DEB", "group": "cosmos-2251-debris", "lat": 3.6350820540867614, "lon": -104.43305229000035, "alt_km": 882.8698130054754, "timestamp": "2025-12-19T06:59:44.303457+00:00", "meta": {"OBJECT_NAME": "COSMOS 2251 DEB", "OBJECT_ID": "1993-036ATC", "EPOCH": "2025-12-17T01:01:27.071616", "MEAN_MOTION": 14.24015017, "ECCENTRICITY": 0.01218819, "INCLINATION": 73.8614, "RA_OF_ASC_NODE": 258.6041, "ARG_OF_PERICENTER": 226.0627, "MEAN_ANOMALY": 133.0413, "EPHEMERIS_TYPE": 0, "CLASSIFICATION_TYPE": "U", "NORAD_CAT_ID": 35830, "ELEMENT_SET_NO": 999, "REV_AT_EPOCH": 61325, "BSTAR": 0.00082142349, "MEAN_MOTION_DOT": 2.01e-05, "MEAN_MOTION_DDOT": 0}, "tle": {"line1": "1 35830U 93036ATC 25351.04267444  .00002010  00000+0  82142-3 0  9999", "line2": "2 35830  73.8614 258.6041 0121881 226.0627 133.0413 14.24015017613259"}}, "geometry": {"type": "Point", "coordinates": [-104.43305229000035, 3.6350820540867614]}}]}